KUIPER-00180            
1 67768U 26030E   26059.15266668 -.00030408  00000+0 -94267-3 0  9994
2 67768  51.8821 265.3893 0015483  41.6409 318.5752 15.32509122  3624
KUIPER-00197            
1 67769U 26030F   26059.18857271  .00022584  00000+0  64512-3 0  9998
2 67769  51.8822 264.8932 0001215  75.0600 285.0520 15.35915555  3632
KUIPER-00198            
1 67770U 26030G   26059.12714241  .00028904  00000+0  83119-3 0  9999
2 67770  51.8800 265.2275 0002770  31.7032 328.4121 15.35563405  3621
KUIPER-00199            
1 67771U 26030H   26059.14322416  .00018241  00000+0  55652-3 0  9995
2 67771  51.8807 265.3291 0010336  33.9854 326.1792 15.33938552  3627
KUIPER-00200            
1 67772U 26030J   26059.18243071  .00030905  00000+0  86019-3 0  9991
2 67772  51.8804 264.8507 0002059 181.7454 178.3526 15.36550031  3638
KUIPER-00203            
1 67773U 26030K   26059.08113236 -.00275165  00000+0 -88031-2 0  9996
2 67773  51.8805 265.6601 0013722  35.1960 324.9929 15.32896209  3617
KUIPER-00205            
1 67774U 26030L   26059.18926392  .00032157  00000+0  91334-3 0  9994
2 67774  51.8802 264.8945 0002076 359.2286   0.8697 15.35898473  3630
KUIPER-00208            
1 67775U 26030M   26059.08644464  .00001119  00000+0  46353-4 0  9997
2 67775  51.8842 265.7034 0015372  33.5757 326.6199 15.32889928  3618
KUIPER-00209            
1 67776U 26030N   26059.15222785 -.00011383  00000+0 -35035-3 0  9994
2 67776  51.8835 265.3904 0013264  37.5218 322.6690 15.32022541  3620
KUIPER-00213            
1 67777U 26030P   26059.08628642  .00020533  00000+0  65200-3 0  9991
2 67777  51.8811 265.6940 0014392  36.5568 323.6396 15.32534737  3616
KUIPER-00214            
1 67778U 26030Q   26059.18427586  .00029960  00000+0  84038-3 0  9990
2 67778  51.8834 264.8662 0001536 172.0775 188.0236 15.36324731  3639
KUIPER-00215            
1 67779U 26030R   26059.14190704  .00019602  00000+0  59594-3 0  9997
2 67779  51.8835 265.3281 0009921  33.0742 327.0862 15.34003239  3624
