CCSDS_OMM_VERS = 2.0
CREATION_DATE  = 
ORIGINATOR     = 

OBJECT_NAME    = KUIPER-00180
OBJECT_ID      = 2026-030E
CENTER_NAME    = EARTH
REF_FRAME      = TEME
TIME_SYSTEM    = UTC
MEAN_ELEMENT_THEORY = SGP/SGP4

EPOCH          = 2026-02-28T03:39:50.401152
MEAN_MOTION    = 15.32509122
ECCENTRICITY   = .0015483
INCLINATION    = 51.8821
RA_OF_ASC_NODE = 265.3893
ARG_OF_PERICENTER = 41.6409
MEAN_ANOMALY   = 318.5752

EPHEMERIS_TYPE = 0
CLASSIFICATION_TYPE = U
NORAD_CAT_ID   = 67768
ELEMENT_SET_NO = 999
REV_AT_EPOCH   = 362
BSTAR          = -.94267E-3
MEAN_MOTION_DOT = -.30408E-3
MEAN_MOTION_DDOT = 0

CCSDS_OMM_VERS = 2.0
CREATION_DATE  = 
ORIGINATOR     = 

OBJECT_NAME    = KUIPER-00197
OBJECT_ID      = 2026-030F
CENTER_NAME    = EARTH
REF_FRAME      = TEME
TIME_SYSTEM    = UTC
MEAN_ELEMENT_THEORY = SGP/SGP4

EPOCH          = 2026-02-28T04:31:32.682144
MEAN_MOTION    = 15.35915555
ECCENTRICITY   = .0001215
INCLINATION    = 51.8822
RA_OF_ASC_NODE = 264.8932
ARG_OF_PERICENTER = 75.0600
MEAN_ANOMALY   = 285.0520

EPHEMERIS_TYPE = 0
CLASSIFICATION_TYPE = U
NORAD_CAT_ID   = 67769
ELEMENT_SET_NO = 999
REV_AT_EPOCH   = 363
BSTAR          = .64512E-3
MEAN_MOTION_DOT = .22584E-3
MEAN_MOTION_DDOT = 0

CCSDS_OMM_VERS = 2.0
CREATION_DATE  = 
ORIGINATOR     = 

OBJECT_NAME    = KUIPER-00198
OBJECT_ID      = 2026-030G
CENTER_NAME    = EARTH
REF_FRAME      = TEME
TIME_SYSTEM    = UTC
MEAN_ELEMENT_THEORY = SGP/SGP4

EPOCH          = 2026-02-28T03:03:05.104224
MEAN_MOTION    = 15.35563405
ECCENTRICITY   = .000277
INCLINATION    = 51.8800
RA_OF_ASC_NODE = 265.2275
ARG_OF_PERICENTER = 31.7032
MEAN_ANOMALY   = 328.4121

EPHEMERIS_TYPE = 0
CLASSIFICATION_TYPE = U
NORAD_CAT_ID   = 67770
ELEMENT_SET_NO = 999
REV_AT_EPOCH   = 362
BSTAR          = .83119E-3
MEAN_MOTION_DOT = .28904E-3
MEAN_MOTION_DDOT = 0

CCSDS_OMM_VERS = 2.0
CREATION_DATE  = 
ORIGINATOR     = 

OBJECT_NAME    = KUIPER-00199
OBJECT_ID      = 2026-030H
CENTER_NAME    = EARTH
REF_FRAME      = TEME
TIME_SYSTEM    = UTC
MEAN_ELEMENT_THEORY = SGP/SGP4

EPOCH          = 2026-02-28T03:26:14.567424
MEAN_MOTION    = 15.33938552
ECCENTRICITY   = .0010336
INCLINATION    = 51.8807
RA_OF_ASC_NODE = 265.3291
ARG_OF_PERICENTER = 33.9854
MEAN_ANOMALY   = 326.1792

EPHEMERIS_TYPE = 0
CLASSIFICATION_TYPE = U
NORAD_CAT_ID   = 67771
ELEMENT_SET_NO = 999
REV_AT_EPOCH   = 362
BSTAR          = .55652E-3
MEAN_MOTION_DOT = .18241E-3
MEAN_MOTION_DDOT = 0

CCSDS_OMM_VERS = 2.0
CREATION_DATE  = 
ORIGINATOR     = 

OBJECT_NAME    = KUIPER-00200
OBJECT_ID      = 2026-030J
CENTER_NAME    = EARTH
REF_FRAME      = TEME
TIME_SYSTEM    = UTC
MEAN_ELEMENT_THEORY = SGP/SGP4

EPOCH          = 2026-02-28T04:22:42.013344
MEAN_MOTION    = 15.36550031
ECCENTRICITY   = .0002059
INCLINATION    = 51.8804
RA_OF_ASC_NODE = 264.8507
ARG_OF_PERICENTER = 181.7454
MEAN_ANOMALY   = 178.3526

EPHEMERIS_TYPE = 0
CLASSIFICATION_TYPE = U
NORAD_CAT_ID   = 67772
ELEMENT_SET_NO = 999
REV_AT_EPOCH   = 363
BSTAR          = .86019E-3
MEAN_MOTION_DOT = .30905E-3
MEAN_MOTION_DDOT = 0

CCSDS_OMM_VERS = 2.0
CREATION_DATE  = 
ORIGINATOR     = 

OBJECT_NAME    = KUIPER-00203
OBJECT_ID      = 2026-030K
CENTER_NAME    = EARTH
REF_FRAME      = TEME
TIME_SYSTEM    = UTC
MEAN_ELEMENT_THEORY = SGP/SGP4

EPOCH          = 2026-02-28T01:56:49.835904
MEAN_MOTION    = 15.32896209
ECCENTRICITY   = .0013722
INCLINATION    = 51.8805
RA_OF_ASC_NODE = 265.6601
ARG_OF_PERICENTER = 35.1960
MEAN_ANOMALY   = 324.9929

EPHEMERIS_TYPE = 0
CLASSIFICATION_TYPE = U
NORAD_CAT_ID   = 67773
ELEMENT_SET_NO = 999
REV_AT_EPOCH   = 361
BSTAR          = -.88031E-2
MEAN_MOTION_DOT = -.275165E-2
MEAN_MOTION_DDOT = 0

CCSDS_OMM_VERS = 2.0
CREATION_DATE  = 
ORIGINATOR     = 

OBJECT_NAME    = KUIPER-00205
OBJECT_ID      = 2026-030L
CENTER_NAME    = EARTH
REF_FRAME      = TEME
TIME_SYSTEM    = UTC
MEAN_ELEMENT_THEORY = SGP/SGP4

EPOCH          = 2026-02-28T04:32:32.402688
MEAN_MOTION    = 15.35898473
ECCENTRICITY   = .0002076
INCLINATION    = 51.8802
RA_OF_ASC_NODE = 264.8945
ARG_OF_PERICENTER = 359.2286
MEAN_ANOMALY   = 0.8697

EPHEMERIS_TYPE = 0
CLASSIFICATION_TYPE = U
NORAD_CAT_ID   = 67774
ELEMENT_SET_NO = 999
REV_AT_EPOCH   = 363
BSTAR          = .91334E-3
MEAN_MOTION_DOT = .32157E-3
MEAN_MOTION_DDOT = 0

CCSDS_OMM_VERS = 2.0
CREATION_DATE  = 
ORIGINATOR     = 

OBJECT_NAME    = KUIPER-00208
OBJECT_ID      = 2026-030M
CENTER_NAME    = EARTH
REF_FRAME      = TEME
TIME_SYSTEM    = UTC
MEAN_ELEMENT_THEORY = SGP/SGP4

EPOCH          = 2026-02-28T02:04:28.816896
MEAN_MOTION    = 15.32889928
ECCENTRICITY   = .0015372
INCLINATION    = 51.8842
RA_OF_ASC_NODE = 265.7034
ARG_OF_PERICENTER = 33.5757
MEAN_ANOMALY   = 326.6199

EPHEMERIS_TYPE = 0
CLASSIFICATION_TYPE = U
NORAD_CAT_ID   = 67775
ELEMENT_SET_NO = 999
REV_AT_EPOCH   = 361
BSTAR          = .46353E-4
MEAN_MOTION_DOT = .1119E-4
MEAN_MOTION_DDOT = 0

CCSDS_OMM_VERS = 2.0
CREATION_DATE  = 
ORIGINATOR     = 

OBJECT_NAME    = KUIPER-00209
OBJECT_ID      = 2026-030N
CENTER_NAME    = EARTH
REF_FRAME      = TEME
TIME_SYSTEM    = UTC
MEAN_ELEMENT_THEORY = SGP/SGP4

EPOCH          = 2026-02-28T03:39:12.486240
MEAN_MOTION    = 15.32022541
ECCENTRICITY   = .0013264
INCLINATION    = 51.8835
RA_OF_ASC_NODE = 265.3904
ARG_OF_PERICENTER = 37.5218
MEAN_ANOMALY   = 322.6690

EPHEMERIS_TYPE = 0
CLASSIFICATION_TYPE = U
NORAD_CAT_ID   = 67776
ELEMENT_SET_NO = 999
REV_AT_EPOCH   = 362
BSTAR          = -.35035E-3
MEAN_MOTION_DOT = -.11383E-3
MEAN_MOTION_DDOT = 0

CCSDS_OMM_VERS = 2.0
CREATION_DATE  = 
ORIGINATOR     = 

OBJECT_NAME    = KUIPER-00213
OBJECT_ID      = 2026-030P
CENTER_NAME    = EARTH
REF_FRAME      = TEME
TIME_SYSTEM    = UTC
MEAN_ELEMENT_THEORY = SGP/SGP4

EPOCH          = 2026-02-28T02:04:15.146688
MEAN_MOTION    = 15.32534737
ECCENTRICITY   = .0014392
INCLINATION    = 51.8811
RA_OF_ASC_NODE = 265.6940
ARG_OF_PERICENTER = 36.5568
MEAN_ANOMALY   = 323.6396

EPHEMERIS_TYPE = 0
CLASSIFICATION_TYPE = U
NORAD_CAT_ID   = 67777
ELEMENT_SET_NO = 999
REV_AT_EPOCH   = 361
BSTAR          = .652E-3
MEAN_MOTION_DOT = .20533E-3
MEAN_MOTION_DDOT = 0

CCSDS_OMM_VERS = 2.0
CREATION_DATE  = 
ORIGINATOR     = 

OBJECT_NAME    = KUIPER-00214
OBJECT_ID      = 2026-030Q
CENTER_NAME    = EARTH
REF_FRAME      = TEME
TIME_SYSTEM    = UTC
MEAN_ELEMENT_THEORY = SGP/SGP4

EPOCH          = 2026-02-28T04:25:21.434304
MEAN_MOTION    = 15.36324731
ECCENTRICITY   = .0001536
INCLINATION    = 51.8834
RA_OF_ASC_NODE = 264.8662
ARG_OF_PERICENTER = 172.0775
MEAN_ANOMALY   = 188.0236

EPHEMERIS_TYPE = 0
CLASSIFICATION_TYPE = U
NORAD_CAT_ID   = 67778
ELEMENT_SET_NO = 999
REV_AT_EPOCH   = 363
BSTAR          = .84038E-3
MEAN_MOTION_DOT = .2996E-3
MEAN_MOTION_DDOT = 0

CCSDS_OMM_VERS = 2.0
CREATION_DATE  = 
ORIGINATOR     = 

OBJECT_NAME    = KUIPER-00215
OBJECT_ID      = 2026-030R
CENTER_NAME    = EARTH
REF_FRAME      = TEME
TIME_SYSTEM    = UTC
MEAN_ELEMENT_THEORY = SGP/SGP4

EPOCH          = 2026-02-28T03:24:20.768256
MEAN_MOTION    = 15.34003239
ECCENTRICITY   = .0009921
INCLINATION    = 51.8835
RA_OF_ASC_NODE = 265.3281
ARG_OF_PERICENTER = 33.0742
MEAN_ANOMALY   = 327.0862

EPHEMERIS_TYPE = 0
CLASSIFICATION_TYPE = U
NORAD_CAT_ID   = 67779
ELEMENT_SET_NO = 999
REV_AT_EPOCH   = 362
BSTAR          = .59594E-3
MEAN_MOTION_DOT = .19602E-3
MEAN_MOTION_DDOT = 0

